{"fetched_at":"2026-03-29T02:12:04Z","count":15717,"tles":[{"name":"STARLINK-5608","line1":"1 55353U 23013Y   26087.56999692  .00060387  00000+0  22101-2 0  9999","line2":"2 55353  43.0018 193.1313 0001363 273.7942  86.2753 15.27219917174600","category":"Starlink"}]}